BID,LATITUDE,LONGITUDE,STRUCTURE_CLASSIFICATION,STRUCTURE_CATEGORY,HAZUS_USAGE,SUBURB,POSTCODE,PRE1989,HAZUS_STRUCTURE_CLASSIFICATION,CONTENTS_COST_DENSITY,BUILDING_COST_DENSITY,FLOOR_AREA,SURVEY_FACTOR,FCB_USAGE,SITE_CLASS
1,-5.64725,105.59233,RM1L, BUILDING,EDU1,Kalianda,0,-999,RM1L,1,1,250,1,411,D
2,-5.65175,105.624559,RM1L, BUILDING,EDU1,Sidomulyo,0,-999,RM1L,1,1,250,1,411,D
3,-6.574,105.711419,RM1L, BUILDING,EDU1,Cigeulis,0,-999,RM1L,1,1,250,1,411,D
4,-5.884722,105.805,RM1L, BUILDING,EDU1,Kalianda,0,-999,RM1L,1,1,250,1,411,D
5,-6.65067,105.919439,RM1L, BUILDING,EDU1,Munjul,0,-999,RM1L,1,1,250,1,411,D
6,-6.20897,106.02778,RM1L, BUILDING,EDU1,Padarincang,0,-999,RM1L,1,1,250,1,411,C
7,-6.1295,106.088249,RM1L, BUILDING,EDU1,Taktakan,0,-999,RM1L,1,1,250,1,411,C
8,-6.219689,106.178169,RM1L, BUILDING,EDU1,Petir,0,-999,RM1L,1,1,250,1,411,D
9,-6.276111,106.182777,RM1L, BUILDING,EDU1,Balaraja,0,-999,RM1L,1,1,250,1,411,D
10,-6.57925,106.252859,RM1L, BUILDING,EDU1,Leuwidamar,0,-999,RM1L,1,1,250,1,411,C
11,-6.111359,106.265189,RM1L, BUILDING,EDU1,Ciruas,0,-999,RM1L,1,1,250,1,411,D
12,-6.280689,106.27247,RM1L, BUILDING,EDU1,Pamarayan,0,-999,RM1L,1,1,250,1,411,D
13,-6.251943,106.382222,RM1L, BUILDING,EDU1,Carenang,0,-999,RM1L,1,1,250,1,411,D
14,-6.258109,106.42706,RM1L, BUILDING,EDU1,Cisoka,0,-999,RM1L,1,1,250,1,411,D
15,-6.22111,106.436666,RM1L, BUILDING,EDU1,Kresek,0,-999,RM1L,1,1,250,1,411,D
16,-6.05417,106.51261,RM1L, BUILDING,EDU1,Mauk,0,-999,RM1L,1,1,250,1,411,D
17,-6.077499,106.519721,RM1L, BUILDING,EDU1,Tanara,0,-999,RM1L,1,1,250,1,411,D
18,-6.463056,106.529721,RM1L, BUILDING,EDU1,Cisoka,0,-999,RM1L,1,1,250,1,411,C
19,-6.160278,106.543888,RM1L, BUILDING,EDU1,Kibin,0,-999,RM1L,1,1,250,1,411,D
20,-6.520439,106.56022,RM1L, BUILDING,EDU1,Cigudeg,0,-999,RM1L,1,1,250,1,411,C
21,-6.261359,106.567889,RM1L, BUILDING,EDU1,Curug (Tangerang),0,-999,RM1L,1,1,250,1,411,D
22,-6.496939,106.587669,RM1L, BUILDING,EDU1,Cigudeg,0,-999,RM1L,1,1,250,1,411,C
23,-7.413888,106.63611,RM1L, BUILDING,EDU1,Ciemas,0,-999,RM1L,1,1,250,1,411,D
24,-6.616919,106.639249,RM1L, BUILDING,EDU1,Leuwiliang,0,-999,RM1L,1,1,250,1,411,C
25,-6.353056,106.644444,RM1L, BUILDING,EDU1,Cikupa,0,-999,RM1L,1,1,250,1,411,D
26,-6.460833,106.659444,RM1L, BUILDING,EDU1,Parung Panjang,0,-999,RM1L,1,1,250,1,411,D
27,-6.62139,106.693499,RM1L, BUILDING,EDU1,Tenjolaya,0,-999,RM1L,1,1,250,1,411,C
28,-7.34422,106.696109,RM1L, BUILDING,EDU1,Tegal Buleud,0,-999,RM1L,1,1,250,1,411,D
29,-6.977249,106.70264,RM1L, BUILDING,EDU1,Bantargadung,0,-999,RM1L,1,1,250,1,411,C
30,-7.043888,106.703611,RM1L, BUILDING,EDU1,Cikakak,0,-999,RM1L,1,1,250,1,411,C
31,-7.268888,106.704444,RM1L, BUILDING,EDU1,Jampang Kulon,0,-999,RM1L,1,1,250,1,411,C
32,-6.828389,106.721639,RM1L, BUILDING,EDU1,Bojong Genteng,0,-999,RM1L,1,1,250,1,411,D
33,-6.824167,106.723333,RM1L, BUILDING,EDU1,Pamijahan,0,-999,RM1L,1,1,250,1,411,D
34,-6.40781,106.736329,RM1L, BUILDING,EDU1,Sawangan (Kota Depok),0,-999,RM1L,1,1,250,1,411,D
35,-6.41078,106.74447,RM1L, BUILDING,EDU1,Sawangan (Kota Depok),0,-999,RM1L,1,1,250,1,411,D
36,-6.839167,106.779166,RM1L, BUILDING,EDU1,Leuwiliang,0,-999,RM1L,1,1,250,1,411,C
37,-6.828999,106.782079,RM1L, BUILDING,EDU1,Ciambar,0,-999,RM1L,1,1,250,1,411,D
38,-6.528969,106.79075,RM1L, BUILDING,EDU1,Sukaraja (Bogor),0,-999,RM1L,1,1,250,1,411,D
39,-6.707777,106.7925,RM1L, BUILDING,EDU1,Ciseeng,0,-999,RM1L,1,1,250,1,411,C
40,-6.891555,106.808111,RM1L, BUILDING,EDU1,Cibadak (Sukabumi),0,-999,RM1L,1,1,250,1,411,C
41,-6.334444,106.808888,RM1L, BUILDING,EDU1,Mekarbaru,0,-999,RM1L,1,1,250,1,411,D
42,-6.81325,106.82064,RM1L, BUILDING,EDU1,Ciambar,0,-999,RM1L,1,1,250,1,411,C
43,-6.84328,106.82353,RM1L, BUILDING,EDU1,Nagrak,0,-999,RM1L,1,1,250,1,411,C
44,-6.501111,106.837777,RM1L, BUILDING,EDU1,Parung,0,-999,RM1L,1,1,250,1,411,D
45,-6.908388,106.843416,RM1L, BUILDING,EDU1,Cicantayan,0,-999,RM1L,1,1,250,1,411,C
46,-7.226943,106.868332,RM1L, BUILDING,EDU1,Pelabuhan Ratu,0,-999,RM1L,1,1,250,1,411,C
47,-6.555833,106.876388,RM1L, BUILDING,EDU1,Rumpin,0,-999,RM1L,1,1,250,1,411,C
48,-6.084505,106.885833,RM1L, BUILDING,EDU1,Cisaat,0,-999,RM1L,1,1,250,1,411,D
49,-6.768611,106.892221,RM1L, BUILDING,EDU1,Tanah Sereal,0,-999,RM1L,1,1,250,1,411,C
50,-6.578359,106.89847,RM1L, BUILDING,EDU1,Babakan Madang,0,-999,RM1L,1,1,250,1,411,C
51,-7.060832,106.964999,RM1L, BUILDING,EDU1,Caringin (Sukabumi),0,-999,RM1L,1,1,250,1,411,C
52,-6.921389,106.987222,RM1L, BUILDING,EDU1,Cigombong,0,-999,RM1L,1,1,250,1,411,C
53,-7.137222,106.996388,RM1L, BUILDING,EDU1,Cicantayan,0,-999,RM1L,1,1,250,1,411,C
54,-6.72278,107.02911,RM1L, BUILDING,EDU1,Cipanas (Cianjur),0,-999,RM1L,1,1,250,1,411,C
55,-6.377111,107.0415,RM1L, BUILDING,EDU1,Setu,0,-999,RM1L,1,1,250,1,411,D
56,-6.728055,107.052777,RM1L, BUILDING,EDU1,Sukamakmur,0,-999,RM1L,1,1,250,1,411,C
57,-7.025832,107.054722,RM1L, BUILDING,EDU1,Caringin (Sukabumi),0,-999,RM1L,1,1,250,1,411,C
58,-6.95861,107.074443,RM1L, BUILDING,EDU1,Caringin (Sukabumi),0,-999,RM1L,1,1,250,1,411,C
59,-6.801667,107.101943,RM1L, BUILDING,EDU1,Sukaraja (Bogor),0,-999,RM1L,1,1,250,1,411,C
60,-6.670556,107.1025,RM1L, BUILDING,EDU1,Sukamakmur,0,-999,RM1L,1,1,250,1,411,C
61,-6.685556,107.109444,RM1L, BUILDING,EDU1,Sukaresmi (Bogor),0,-999,RM1L,1,1,250,1,411,C
62,-6.771666,107.121388,RM1L, BUILDING,EDU1,Caringin (Bogor),0,-999,RM1L,1,1,250,1,411,C
63,-7.046667,107.148056,RM1L, BUILDING,EDU1,Sukalarang,0,-999,RM1L,1,1,250,1,411,C
64,-6.525,107.155277,RM1L, BUILDING,EDU1,Jonggol,0,-999,RM1L,1,1,250,1,411,D
65,-6.60861,107.157499,RM1L, BUILDING,EDU1,Jonggol,0,-999,RM1L,1,1,250,1,411,C
66,-6.662221,107.158056,RM1L, BUILDING,EDU1,Jonggol,0,-999,RM1L,1,1,250,1,411,C
67,-6.695389,107.166419,RM1L, BUILDING,EDU1,Cikalong Kulon,0,-999,RM1L,1,1,250,1,411,C
68,-6.824999,107.172778,RM1L, BUILDING,EDU1,Sukamakmur,0,-999,RM1L,1,1,250,1,411,C
69,-6.837029,107.184999,RM1L, BUILDING,EDU1,Karangtengah (Cianjur),0,-999,RM1L,1,1,250,1,411,D
70,-7.449443,107.209999,RM1L, BUILDING,EDU1,Tanggeung,0,-999,RM1L,1,1,250,1,411,D
71,-6.503333,107.216111,RM1L, BUILDING,EDU1,Jonggol,0,-999,RM1L,1,1,250,1,411,D
72,-6.66111,107.220555,RM1L, BUILDING,EDU1,Sukamakmur,0,-999,RM1L,1,1,250,1,411,C
73,-7.134721,107.257777,RM1L, BUILDING,EDU1,Geger Bitung,0,-999,RM1L,1,1,250,1,411,C
74,-7.454444,107.273888,RM1L, BUILDING,EDU1,Tanggeung,0,-999,RM1L,1,1,250,1,411,C
75,-6.604166,107.280555,RM1L, BUILDING,EDU1,Jonggol,0,-999,RM1L,1,1,250,1,411,C
76,-7.441667,107.439722,RM1L, BUILDING,EDU1,Pagelaran (Cianjur),0,-999,RM1L,1,1,250,1,411,C
77,-6.67422,107.453889,RM1L, BUILDING,EDU1,Tegal Waru,0,-999,RM1L,1,1,250,1,411,C
78,-6.408109,107.47344,RM1L, BUILDING,EDU1,Kotabaru (Karawang),0,-999,RM1L,1,1,250,1,411,D
79,-6.783055,107.476111,RM1L, BUILDING,EDU1,Cikalong Kulon,0,-999,RM1L,1,1,250,1,411,C
80,-6.933611,107.476111,RM1L, BUILDING,EDU1,Nagrak,0,-999,RM1L,1,1,250,1,411,D
81,-7.001469,107.562999,RM1L, BUILDING,EDU1,Bojongsoang,0,-999,RM1L,1,1,250,1,411,D
82,-7.07139,107.60589,RM1L, BUILDING,EDU1,Campaka Mulya,0,-999,RM1L,1,1,250,1,411,C
83,-7.46464,107.619559,RM1L, BUILDING,EDU1,Bungbulang,0,-999,RM1L,1,1,250,1,411,C
84,-7.257139,107.62647,RM1L, BUILDING,EDU1,Cikadu,0,-999,RM1L,1,1,250,1,411,C
85,-7.156111,107.643055,RM1L, BUILDING,EDU1,Soreang (Bandung),0,-999,RM1L,1,1,250,1,411,C
86,-7.528333,107.6575,RM1L, BUILDING,EDU1,Pakenjeng,0,-999,RM1L,1,1,250,1,411,C
87,-7.535556,107.657777,RM1L, BUILDING,EDU1,Bungbulang,0,-999,RM1L,1,1,250,1,411,C
88,-7.47933,107.676559,RM1L, BUILDING,EDU1,Pakenjeng,0,-999,RM1L,1,1,250,1,411,C
89,-7.254189,107.793919,RM1L, BUILDING,EDU1,Sukaresmi (Garut),0,-999,RM1L,1,1,250,1,411,C
90,-6.914919,107.835419,RM1L, BUILDING,EDU1,Pamulihan (Sumedang),0,-999,RM1L,1,1,250,1,411,C
91,-7.551389,107.952222,RM1L, BUILDING,EDU1,Singajaya,0,-999,RM1L,1,1,250,1,411,C
92,-7.035559,107.971309,RM1L, BUILDING,EDU1,Blubur Limbangan,0,-999,RM1L,1,1,250,1,411,C
93,-7.135469,107.971309,RM1L, BUILDING,EDU1,Banyuresmi,0,-999,RM1L,1,1,250,1,411,D
94,-7.548056,108.032499,RM1L, BUILDING,EDU1,Cigudeg,0,-999,RM1L,1,1,250,1,411,C
95,-7.457778,108.057499,RM1L, BUILDING,EDU1,Cigalontang,0,-999,RM1L,1,1,250,1,411,C
96,-7.407669,108.080939,RM1L, BUILDING,EDU1,Puspahiang,0,-999,RM1L,1,1,250,1,411,D
97,-7.358111,108.084833,RM1L, BUILDING,EDU1,Cigalontang,0,-999,RM1L,1,1,250,1,411,C
98,-7.158749,108.114579,RM1L, BUILDING,EDU1,Sukawening,0,-999,RM1L,1,1,250,1,411,C
99,-7.5235,108.12314,RM1L, BUILDING,EDU1,Bojong Asih,0,-999,RM1L,1,1,250,1,411,C
100,-7.120833,108.127221,RM1L, BUILDING,EDU1,Malangbong,0,-999,RM1L,1,1,250,1,411,C
101,-7.134833,108.132694,RM1L, BUILDING,EDU1,Kadipaten (Tasikmalaya),0,-999,RM1L,1,1,250,1,411,C
102,-7.134833,108.132694,RM1L, BUILDING,EDU1,Mangunreja,0,-999,RM1L,1,1,250,1,411,C
103,-7.29742,108.13636,RM1L, BUILDING,EDU1,Sukaratu,0,-999,RM1L,1,1,250,1,411,D
104,-7.674999,108.221943,RM1L, BUILDING,EDU1,Cipatujah,0,-999,RM1L,1,1,250,1,411,C
105,-7.430556,108.252778,RM1L, BUILDING,EDU1,Tamansari (Kota Tasikmalaya),0,-999,RM1L,1,1,250,1,411,D
106,-7.508333,108.269722,RM1L, BUILDING,EDU1,Salopa,0,-999,RM1L,1,1,250,1,411,C
107,-7.63825,108.281169,RM1L, BUILDING,EDU1,Pancatengah,0,-999,RM1L,1,1,250,1,411,C
108,-7.63844,108.28133,RM1L, BUILDING,EDU1,Langensari,0,-999,RM1L,1,1,250,1,411,C
109,-7.809388,108.303833,RM1L, BUILDING,EDU1,Cikalong,0,-999,RM1L,1,1,250,1,411,D
110,-7.36103,108.30481,RM1L, BUILDING,EDU1,Manonjaya,0,-999,RM1L,1,1,250,1,411,D
111,-7.744443,108.322221,RM1L, BUILDING,EDU1,Pancatengah,0,-999,RM1L,1,1,250,1,411,C
112,-7.025359,108.32847,RM1L, BUILDING,EDU1,Cingambul,0,-999,RM1L,1,1,250,1,411,C
113,-7.185555,108.341666,RM1L, BUILDING,EDU1,Wado,0,-999,RM1L,1,1,250,1,411,C
114,-7.404055,108.348944,RM1L, BUILDING,EDU1,Cineam,0,-999,RM1L,1,1,250,1,411,C
115,-7.084719,108.363969,RM1L, BUILDING,EDU1,Panawangan,0,-999,RM1L,1,1,250,1,411,C
116,-6.55283,108.37067,RM1L, BUILDING,EDU1,Kaliwedi,0,-999,RM1L,1,1,250,1,411,D
117,-6.69472,108.39292,RM1L, BUILDING,EDU1,Gempol (Cirebon),0,-999,RM1L,1,1,250,1,411,D
118,-7.64728,108.41933,RM1L, BUILDING,EDU1,Cigugur (Ciamis),0,-999,RM1L,1,1,250,1,411,D
119,-7.627221,108.457499,RM1L, BUILDING,EDU1,Pancatengah,0,-999,RM1L,1,1,250,1,411,C
120,-6.550609,108.491609,RM1L, BUILDING,EDU1,Kapetakan,0,-999,RM1L,1,1,250,1,411,D
121,-7.70361,108.4925,RM1L, BUILDING,EDU1,Langkaplancar,0,-999,RM1L,1,1,250,1,411,D
122,-7.573056,108.538056,RM1L, BUILDING,EDU1,Pamarican,0,-999,RM1L,1,1,250,1,411,C
123,-6.972389,108.660219,RM1L, BUILDING,EDU1,Cidahu (Kuningan),0,-999,RM1L,1,1,250,1,411,C
124,-6.81863,108.72106,RM1L, BUILDING,EDU1,Gebang (Cirebon),0,-999,RM1L,1,1,250,1,411,D
125,-7.48875,108.732333,RM1L, BUILDING,EDU1,Kedungreja,0,-999,RM1L,1,1,250,1,411,D
126,-7.534549,108.800566,RM1L, BUILDING,EDU1,Kedungreja,0,-999,RM1L,1,1,250,1,411,D
127,-7.162361,108.818194,RM1L, BUILDING,EDU1,Salem,0,-999,RM1L,1,1,250,1,411,C
128,-7.389166,108.868333,RM1L, BUILDING,EDU1,Palimanan,0,-999,RM1L,1,1,250,1,411,D
129,-7.371666,108.949167,RM1L, BUILDING,EDU1,Majenang,0,-999,RM1L,1,1,250,1,411,C
130,-7.173549,109.07125,RM1L, BUILDING,EDU1,Bumijawa,0,-999,RM1L,1,1,250,1,411,C
131,-7.174316,109.117999,RM1L, BUILDING,EDU1,Bumijawa,0,-999,RM1L,1,1,250,1,411,C
132,-7.427966,109.128733,RM1L, BUILDING,EDU1,Cilongok,0,-999,RM1L,1,1,250,1,411,C
133,-6.947166,109.154266,RM1L, BUILDING,EDU1,Pangkah,0,-999,RM1L,1,1,250,1,411,D
134,-7.1557,109.25975,RM1L, BUILDING,EDU1,Pulosari,0,-999,RM1L,1,1,250,1,411,C
135,-7.408833,109.271499,RM1L, BUILDING,EDU1,Kembaran,0,-999,RM1L,1,1,250,1,411,D
136,-7.461166,109.271499,RM1L, BUILDING,EDU1,Purwojati,0,-999,RM1L,1,1,250,1,411,D
137,-7.700222,109.395222,RM1L, BUILDING,EDU1,Ayah,0,-999,RM1L,1,1,250,1,411,C
138,-7.701833,109.598722,RM1L, BUILDING,EDU1,Petanahan,0,-999,RM1L,1,1,250,1,411,D
139,-7.647777,109.671916,RM1L, BUILDING,EDU1,Alian,0,-999,RM1L,1,1,250,1,411,C
140,-7.625555,109.688583,RM1L, BUILDING,EDU1,Alian,0,-999,RM1L,1,1,250,1,411,C
141,-7.797138,109.778916,RM1L, BUILDING,EDU1,Mirit,0,-999,RM1L,1,1,250,1,411,D
142,-7.392483,109.96485,RM1L, BUILDING,EDU1,Kalikajar,0,-999,RM1L,1,1,250,1,411,C
143,-7.809499,110.000516,RM1L, BUILDING,EDU1,Ngadirojo (Wonogiri),0,-999,RM1L,1,1,250,1,411,D
144,-7.551666,110.158566,RM1L, BUILDING,EDU1,Tempuran (Magelang),0,-999,RM1L,1,1,250,1,411,D
